IRIDIUM 150             
1 43257U 18030J   24340.58138085 -.00000132  00000+0 -54192-4 0  9996
2 43257  86.3988 163.9711 0001564  87.7407 272.3968 14.34217695350098
IRIDIUM 161             
1 43478U 18047C   24340.36241910  .00000046  00000+0  77828-5 0  9991
2 43478  86.4468 322.0041 0002146  86.6034 273.5413 14.43271213344538
IRIDIUM 152             
1 43479U 18047D   24340.46530282  .00000393  00000+0  13343-3 0  9991
2 43479  86.3945 321.8209 0002338  85.7203 274.4260 14.34216412342406
IRIDIUM 147             
1 43480U 18047E   24340.47164510  .00000209  00000+0  67497-4 0  9997
2 43480  86.3948 321.8136 0002552  90.2261 269.9227 14.34216000342408
IRIDIUM 110             
1 43481U 18047F   24340.47798752  .00000545  00000+0  18770-3 0  9991
2 43481  86.3951 321.8882 0002650  83.7101 276.4396 14.34216836342395
IRIDIUM 162             
1 43482U 18047G   24340.35612455  .00000709  00000+0  20477-3 0  9993
2 43482  86.4470 321.9049 0002474  83.3443 276.8040 14.43284179344520
IRIDIUM 160             
1 43569U 18061A   24340.56336338  .00000091  00000+0  25472-4 0  9996
2 43569  86.3951 290.2101 0002360  90.3540 269.7927 14.34217859333306
